{
  "type": "FeatureCollection",
  "features": [
    {
      "type": "Feature",
      "properties": {
        "norad_id": 33886,
        "name": "IRIDIUM 33 DEB",
        "group": "iridium-33-debris",
        "lat": -30.819555343831254,
        "lon": 60.90876890642248,
        "alt_km": 782.6957446962115,
        "timestamp": "2025-12-22T14:45:57.790101+00:00",
        "meta_object_name": "IRIDIUM 33 DEB",
        "meta_object_id": "1997-051BF",
        "meta_epoch": "2025-12-22T06:53:02.836032",
        "meta_mean_motion": 14.36062568,
        "meta_eccentricity": 0.00131714,
        "meta_inclination": 86.3822,
        "meta_ra_of_asc_node": 63.2101,
        "meta_arg_of_pericenter": 207.5974,
        "meta_mean_anomaly": 224.7282,
        "meta_ephemeris_type": 0,
        "meta_classification_type": "U",
        "meta_norad_cat_id": 33886,
        "meta_element_set_no": 999,
        "meta_rev_at_epoch": 88189,
        "meta_bstar": 0.00017600062,
        "meta_mean_motion_dot": 5.32e-06,
        "meta_mean_motion_ddot": 0,
        "tle_line1": "1 33886U 97051BF  25356.28683838  .00000532  00000+0  17600-3 0  9993",
        "tle_line2": "2 33886  86.3822  63.2101 0013171 207.5974 224.7282 14.36062568881891"
      },
      "geometry": {
        "type": "Point",
        "coordinates": [
          60.90876890642248,
          -30.819555343831254
        ]
      }
    },
    {
      "type": "Feature",
      "properties": {
        "norad_id": 33887,
        "name": "IRIDIUM 33 DEB",
        "group": "iridium-33-debris",
        "lat": -53.03996272004412,
        "lon": -5.791593178328618,
        "alt_km": 776.5893474199356,
        "timestamp": "2025-12-22T14:45:57.790112+00:00",
        "meta_object_name": "IRIDIUM 33 DEB",
        "meta_object_id": "1997-051BG",
        "meta_epoch": "2025-12-21T18:06:57.603168",
        "meta_mean_motion": 14.37228506,
        "meta_eccentricity": 0.00053942,
        "meta_inclination": 86.3041,
        "meta_ra_of_asc_node": 359.5069,
        "meta_arg_of_pericenter": 190.9714,
        "meta_mean_anomaly": 346.844,
        "meta_ephemeris_type": 0,
        "meta_classification_type": "U",
        "meta_norad_cat_id": 33887,
        "meta_element_set_no": 999,
        "meta_rev_at_epoch": 88294,
        "meta_bstar": 0.00011880703,
        "meta_mean_motion_dot": 3.73e-06,
        "meta_mean_motion_ddot": 0,
        "tle_line1": "1 33887U 97051BG  25355.75483337  .00000373  00000+0  11881-3 0  9995",
        "tle_line2": "2 33887  86.3041 359.5069 0005394 190.9714 346.8440 14.37228506882940"
      },
      "geometry": {
        "type": "Point",
        "coordinates": [
          -5.791593178328618,
          -53.03996272004412
        ]
      }
    },
    {
      "type": "Feature",
      "properties": {
        "norad_id": 33953,
        "name": "IRIDIUM 33 DEB",
        "group": "iridium-33-debris",
        "lat": 84.97333310181065,
        "lon": 95.46700695509294,
        "alt_km": 688.310747171221,
        "timestamp": "2025-12-22T14:45:57.790123+00:00",
        "meta_object_name": "IRIDIUM 33 DEB",
        "meta_object_id": "1997-051BN",
        "meta_epoch": "2025-12-22T04:44:25.619136",
        "meta_mean_motion": 14.55406947,
        "meta_eccentricity": 0.00178347,
        "meta_inclination": 86.3836,
        "meta_ra_of_asc_node": 49.6744,
        "meta_arg_of_pericenter": 73.9809,
        "meta_mean_anomaly": 345.1929,
        "meta_ephemeris_type": 0,
        "meta_classification_type": "U",
        "meta_norad_cat_id": 33953,
        "meta_element_set_no": 999,
        "meta_rev_at_epoch": 88441,
        "meta_bstar": 0.0010994661,
        "meta_mean_motion_dot": 4.805e-05,
        "meta_mean_motion_ddot": 0,
        "tle_line1": "1 33953U 97051BN  25356.19751874  .00004805  00000+0  10995-2 0  9990",
        "tle_line2": "2 33953  86.3836  49.6744 0017834  73.9809 345.1929 14.55406947884415"
      },
      "geometry": {
        "type": "Point",
        "coordinates": [
          95.46700695509294,
          84.97333310181065
        ]
      }
    },
    {
      "type": "Feature",
      "properties": {
        "norad_id": 33960,
        "name": "IRIDIUM 33 DEB",
        "group": "iridium-33-debris",
        "lat": -57.83875063635993,
        "lon": 110.83694386493963,
        "alt_km": 623.6538696424077,
        "timestamp": "2025-12-22T14:45:57.790134+00:00",
        "meta_object_name": "IRIDIUM 33 DEB",
        "meta_object_id": "1997-051BV",
        "meta_epoch": "2025-12-22T06:09:23.968224",
        "meta_mean_motion": 14.8563682,
        "meta_eccentricity": 0.00072716,
        "meta_inclination": 86.2544,
        "meta_ra_of_asc_node": 285.0259,
        "meta_arg_of_pericenter": 45.0097,
        "meta_mean_anomaly": 75.6646,
        "meta_ephemeris_type": 0,
        "meta_classification_type": "U",
        "meta_norad_cat_id": 33960,
        "meta_element_set_no": 999,
        "meta_rev_at_epoch": 89008,
        "meta_bstar": 0.0034646151,
        "meta_mean_motion_dot": 0.00030136,
        "meta_mean_motion_ddot": 0,
        "tle_line1": "1 33960U 97051BV  25356.25652741  .00030136  00000+0  34646-2 0  9993",
        "tle_line2": "2 33960  86.2544 285.0259 0007271  45.0097  75.6646 14.85636820890087"
      },
      "geometry": {
        "type": "Point",
        "coordinates": [
          110.83694386493963,
          -57.83875063635993
        ]
      }
    },
    {
      "type": "Feature",
      "properties": {
        "norad_id": 33966,
        "name": "IRIDIUM 33 DEB",
        "group": "iridium-33-debris",
        "lat": 7.928893959762351,
        "lon": 42.292472842777904,
        "alt_km": 733.9949330486652,
        "timestamp": "2025-12-22T14:45:57.790145+00:00",
        "meta_object_name": "IRIDIUM 33 DEB",
        "meta_object_id": "1997-051CB",
        "meta_epoch": "2025-12-22T05:06:20.316096",
        "meta_mean_motion": 14.49629498,
        "meta_eccentricity": 0.00084645,
        "meta_inclination": 86.3912,
        "meta_ra_of_asc_node": 41.9616,
        "meta_arg_of_pericenter": 158.4906,
        "meta_mean_anomaly": 270.3649,
        "meta_ephemeris_type": 0,
        "meta_classification_type": "U",
        "meta_norad_cat_id": 33966,
        "meta_element_set_no": 999,
        "meta_rev_at_epoch": 88579,
        "meta_bstar": 0.00046269479,
        "meta_mean_motion_dot": 1.798e-05,
        "meta_mean_motion_ddot": 0,
        "tle_line1": "1 33966U 97051CB  25356.21273514  .00001798  00000+0  46269-3 0  9999",
        "tle_line2": "2 33966  86.3912  41.9616 0008464 158.4906 270.3649 14.49629498885794"
      },
      "geometry": {
        "type": "Point",
        "coordinates": [
          42.292472842777904,
          7.928893959762351
        ]
      }
    },
    {
      "type": "Feature",
      "properties": {
        "norad_id": 34071,
        "name": "IRIDIUM 33 DEB",
        "group": "iridium-33-debris",
        "lat": 69.61963083249029,
        "lon": 23.443559589623565,
        "alt_km": 713.6750666173111,
        "timestamp": "2025-12-22T14:45:57.790155+00:00",
        "meta_object_name": "IRIDIUM 33 DEB",
        "meta_object_id": "1997-051CE",
        "meta_epoch": "2025-12-22T02:50:50.639424",
        "meta_mean_motion": 14.49504105,
        "meta_eccentricity": 0.00099182,
        "meta_inclination": 86.3448,
        "meta_ra_of_asc_node": 13.7514,
        "meta_arg_of_pericenter": 82.3168,
        "meta_mean_anomaly": 277.9162,
        "meta_ephemeris_type": 0,
        "meta_classification_type": "U",
        "meta_norad_cat_id": 34071,
        "meta_element_set_no": 999,
        "meta_rev_at_epoch": 88470,
        "meta_bstar": 0.00053057175,
        "meta_mean_motion_dot": 2.053e-05,
        "meta_mean_motion_ddot": 0,
        "tle_line1": "1 34071U 97051CE  25356.11864166  .00002053  00000+0  53057-3 0  9993",
        "tle_line2": "2 34071  86.3448  13.7514 0009918  82.3168 277.9162 14.49504105884700"
      },
      "geometry": {
        "type": "Point",
        "coordinates": [
          23.443559589623565,
          69.61963083249029
        ]
      }
    },
    {
      "type": "Feature",
      "properties": {
        "norad_id": 34077,
        "name": "IRIDIUM 33 DEB",
        "group": "iridium-33-debris",
        "lat": 80.02045437499052,
        "lon": -153.90089841216752,
        "alt_km": 670.179590707261,
        "timestamp": "2025-12-22T14:45:57.790166+00:00",
        "meta_object_name": "IRIDIUM 33 DEB",
        "meta_object_id": "1997-051CL",
        "meta_epoch": "2025-12-22T03:06:20.172096",
        "meta_mean_motion": 14.64936285,
        "meta_eccentricity": 0.00091067,
        "meta_inclination": 86.3848,
        "meta_ra_of_asc_node": 47.3707,
        "meta_arg_of_pericenter": 8.9651,
        "meta_mean_anomaly": 49.6074,
        "meta_ephemeris_type": 0,
        "meta_classification_type": "U",
        "meta_norad_cat_id": 34077,
        "meta_element_set_no": 999,
        "meta_rev_at_epoch": 88470,
        "meta_bstar": 0.0012796439,
        "meta_mean_motion_dot": 6.872e-05,
        "meta_mean_motion_ddot": 0,
        "tle_line1": "1 34077U 97051CL  25356.12940014  .00006872  00000+0  12796-2 0  9994",
        "tle_line2": "2 34077  86.3848  47.3707 0009106   8.9651  49.6074 14.64936285884708"
      },
      "geometry": {
        "type": "Point",
        "coordinates": [
          -153.90089841216752,
          80.02045437499052
        ]
      }
    }
  ]
}